[{"ORDINAL":"1","COMMENT":"GENERATED VIA SPACETRACK.ORG API","ORIGINATOR":"JSPOC","NORAD_CAT_ID":"37389","OBJECT_NAME":"XSAT","OBJECT_TYPE":"PAYLOAD","CLASSIFICATION_TYPE":"U","INTLDES":"11015C","EPOCH":"2016-06-23 09:55:37","EPOCH_MICROSECONDS":"412544","MEAN_MOTION":"14.2430055","ECCENTRICITY":"0.0013399","INCLINATION":"98.6067","RA_OF_ASC_NODE":"252.192","ARG_OF_PERICENTER":"209.8693","MEAN_ANOMALY":"150.1722","EPHEMERIS_TYPE":"0","ELEMENT_SET_NO":"999","REV_AT_EPOCH":"26915","BSTAR":"1.8684e-05","MEAN_MOTION_DOT":"0","MEAN_MOTION_DDOT":"0","FILE":"2050671","TLE_LINE0":"0 XSAT","TLE_LINE1":"1 37389U 11015C   16175.41362746 -.00000000  00000-0  18684-4 0  9993","TLE_LINE2":"2 37389  98.6067 252.1920 0013399 209.8693 150.1722 14.24300550269156","OBJECT_ID":"2011-015C","OBJECT_NUMBER":"37389","SEMIMAJOR_AXIS":"7188.982","PERIOD":"101.102","APOGEE":"820.479","PERIGEE":"801.214"},{"ORDINAL":"1","COMMENT":"GENERATED VIA SPACETRACK.ORG API","ORIGINATOR":"JSPOC","NORAD_CAT_ID":"37392","OBJECT_NAME":"INTELSAT NEW DAWN","OBJECT_TYPE":"PAYLOAD","CLASSIFICATION_TYPE":"U","INTLDES":"11016A","EPOCH":"2016-06-22 00:41:12","EPOCH_MICROSECONDS":"490656","MEAN_MOTION":"1.00271999","ECCENTRICITY":"0.0001499","INCLINATION":"0.0292","RA_OF_ASC_NODE":"266.233","ARG_OF_PERICENTER":"223.6122","MEAN_ANOMALY":"183.8942","EPHEMERIS_TYPE":"0","ELEMENT_SET_NO":"999","REV_AT_EPOCH":"1894","BSTAR":"0","MEAN_MOTION_DOT":"1.56e-06","MEAN_MOTION_DDOT":"0","FILE":"2050036","TLE_LINE0":"0 INTELSAT NEW DAWN","TLE_LINE1":"1 37392U 11016A   16174.02861679  .00000156  00000-0  00000+0 0  9992","TLE_LINE2":"2 37392   0.0292 266.2330 0001499 223.6122 183.8942  1.00271999 18947","OBJECT_ID":"2011-016A","OBJECT_NUMBER":"37392","SEMIMAJOR_AXIS":"42164.671","PERIOD":"1436.093","APOGEE":"35792.857","PERIGEE":"35780.216"},{"ORDINAL":"1","COMMENT":"GENERATED VIA SPACETRACK.ORG API","ORIGINATOR":"JSPOC","NORAD_CAT_ID":"37393","OBJECT_NAME":"YAHSAT 1A","OBJECT_TYPE":"PAYLOAD","CLASSIFICATION_TYPE":"U","INTLDES":"11016B","EPOCH":"2016-06-22 00:30:06","EPOCH_MICROSECONDS":"655104","MEAN_MOTION":"1.00274561","ECCENTRICITY":"0.0001845","INCLINATION":"0.0211","RA_OF_ASC_NODE":"4.6356","ARG_OF_PERICENTER":"79.857","MEAN_ANOMALY":"246.1642","EPHEMERIS_TYPE":"0","ELEMENT_SET_NO":"999","REV_AT_EPOCH":"1898","BSTAR":"0","MEAN_MOTION_DOT":"1.01e-06","MEAN_MOTION_DDOT":"0","FILE":"2050032","TLE_LINE0":"0 YAHSAT 1A","TLE_LINE1":"1 37393U 11016B   16174.02091036  .00000101  00000-0  00000+0 0  9995","TLE_LINE2":"2 37393   0.0211   4.6356 0001845  79.8570 246.1642  1.00274561 18986","OBJECT_ID":"2011-016B","OBJECT_NUMBER":"37393","SEMIMAJOR_AXIS":"42163.953","PERIOD":"1436.057","APOGEE":"35793.598","PERIGEE":"35778.039"},{"ORDINAL":"1","COMMENT":"GENERATED VIA SPACETRACK.ORG API","ORIGINATOR":"JSPOC","NORAD_CAT_ID":"37398","OBJECT_NAME":"MERIDIAN 4","OBJECT_TYPE":"PAYLOAD","CLASSIFICATION_TYPE":"U","INTLDES":"11018A","EPOCH":"2016-06-22 13:50:01","EPOCH_MICROSECONDS":"259808","MEAN_MOTION":"2.00599976","ECCENTRICITY":"0.6752612","INCLINATION":"64.5129","RA_OF_ASC_NODE":"200.3036","ARG_OF_PERICENTER":"271.3487","MEAN_ANOMALY":"344.1368","EPHEMERIS_TYPE":"0","ELEMENT_SET_NO":"999","REV_AT_EPOCH":"3762","BSTAR":"0.0001","MEAN_MOTION_DOT":"3.01e-06","MEAN_MOTION_DDOT":"0","FILE":"2050364","TLE_LINE0":"0 MERIDIAN 4","TLE_LINE1":"1 37398U 11018A   16174.57640347  .00000301  00000-0  10000-3 0  9994","TLE_LINE2":"2 37398  64.5129 200.3036 6752612 271.3487 344.1368  2.00599976 37628","OBJECT_ID":"2011-018A","OBJECT_NUMBER":"37398","SEMIMAJOR_AXIS":"26557.137","PERIOD":"717.846","APOGEE":"38112.006","PERIGEE":"2245.997"},{"ORDINAL":"1","COMMENT":"GENERATED VIA SPACETRACK.ORG API","ORIGINATOR":"JSPOC","NORAD_CAT_ID":"37602","OBJECT_NAME":"TELSTAR 14R","OBJECT_TYPE":"PAYLOAD","CLASSIFICATION_TYPE":"U","INTLDES":"11021A","EPOCH":"2016-06-21 01:30:44","EPOCH_MICROSECONDS":"292096","MEAN_MOTION":"1.00270956","ECCENTRICITY":"0.0001518","INCLINATION":"0.0262","RA_OF_ASC_NODE":"26.9913","ARG_OF_PERICENTER":"351.6173","MEAN_ANOMALY":"210.7687","EPHEMERIS_TYPE":"0","ELEMENT_SET_NO":"999","REV_AT_EPOCH":"1920","BSTAR":"0","MEAN_MOTION_DOT":"-2.78e-06","MEAN_MOTION_DDOT":"0","FILE":"2050282","TLE_LINE0":"0 TELSTAR 14R","TLE_LINE1":"1 37602U 11021A   16173.06301264 -.00000278 +00000-0 +00000-0 0  9991","TLE_LINE2":"2 37602 000.0262 026.9913 0001518 351.6173 210.7687 01.00270956019204","OBJECT_ID":"2011-021A","OBJECT_NUMBER":"37602","SEMIMAJOR_AXIS":"42164.964","PERIOD":"1436.108","APOGEE":"35793.230","PERIGEE":"35780.428"},{"ORDINAL":"1","COMMENT":"GENERATED VIA SPACETRACK.ORG API","ORIGINATOR":"JSPOC","NORAD_CAT_ID":"37605","OBJECT_NAME":"GSAT 8","OBJECT_TYPE":"PAYLOAD","CLASSIFICATION_TYPE":"U","INTLDES":"11022A","EPOCH":"2016-06-23 03:30:16","EPOCH_MICROSECONDS":"342272","MEAN_MOTION":"1.00270331","ECCENTRICITY":"0.0002233","INCLINATION":"0.0148","RA_OF_ASC_NODE":"6.22","ARG_OF_PERICENTER":"275.3674","MEAN_ANOMALY":"97.7193","EPHEMERIS_TYPE":"0","ELEMENT_SET_NO":"999","REV_AT_EPOCH":"1868","BSTAR":"0","MEAN_MOTION_DOT":"8.5e-07","MEAN_MOTION_DDOT":"0","FILE":"2050588","TLE_LINE0":"0 GSAT 8","TLE_LINE1":"1 37605U 11022A   16175.14602248  .00000085  00000-0  00000+0 0  9996","TLE_LINE2":"2 37605   0.0148   6.2200 0002233 275.3674  97.7193  1.00270331 18686","OBJECT_ID":"2011-022A","OBJECT_NUMBER":"37605","SEMIMAJOR_AXIS":"42165.139","PERIOD":"1436.117","APOGEE":"35796.420","PERIGEE":"35777.589"},{"ORDINAL":"1","COMMENT":"GENERATED VIA SPACETRACK.ORG API","ORIGINATOR":"JSPOC","NORAD_CAT_ID":"37606","OBJECT_NAME":"ST 2","OBJECT_TYPE":"PAYLOAD","CLASSIFICATION_TYPE":"U","INTLDES":"11022B","EPOCH":"2016-06-23 01:28:52","EPOCH_MICROSECONDS":"855968","MEAN_MOTION":"1.00266909","ECCENTRICITY":"0.0001221","INCLINATION":"0.0155","RA_OF_ASC_NODE":"48.7329","ARG_OF_PERICENTER":"61.4367","MEAN_ANOMALY":"271.667","EPHEMERIS_TYPE":"0","ELEMENT_SET_NO":"999","REV_AT_EPOCH":"1869","BSTAR":"0.0001","MEAN_MOTION_DOT":"1.21e-06","MEAN_MOTION_DDOT":"1.0487","FILE":"2050727","TLE_LINE0":"0 ST 2","TLE_LINE1":"1 37606U 11022B   16175.06172287  .00000121  10487-7  10000-3 0  9996","TLE_LINE2":"2 37606   0.0155  48.7329 0001221  61.4367 271.6670  1.00266909 18697","OBJECT_ID":"2011-022B","OBJECT_NUMBER":"37606","SEMIMAJOR_AXIS":"42166.098","PERIOD":"1436.166","APOGEE":"35793.112","PERIGEE":"35782.815"},{"ORDINAL":"1","COMMENT":"GENERATED VIA SPACETRACK.ORG API","ORIGINATOR":"JSPOC","NORAD_CAT_ID":"37673","OBJECT_NAME":"SAC-D (AQUARIUS)","OBJECT_TYPE":"PAYLOAD","CLASSIFICATION_TYPE":"U","INTLDES":"11024A","EPOCH":"2016-06-22 22:42:24","EPOCH_MICROSECONDS":"560640","MEAN_MOTION":"14.72542728","ECCENTRICITY":"7.16e-05","INCLINATION":"98.0103","RA_OF_ASC_NODE":"181.6009","ARG_OF_PERICENTER":"82.6213","MEAN_ANOMALY":"333.7788","EPHEMERIS_TYPE":"0","ELEMENT_SET_NO":"999","REV_AT_EPOCH":"27060","BSTAR":"3.1801e-05","MEAN_MOTION_DOT":"1.53e-06","MEAN_MOTION_DDOT":"0","FILE":"2050785","TLE_LINE0":"0 SAC-D (AQUARIUS)","TLE_LINE1":"1 37673U 11024A   16174.94611760 +.00000153 +00000-0 +31801-4 0  9993","TLE_LINE2":"2 37673 098.0103 181.6009 0000716 082.6213 333.7788 14.72542728270606","OBJECT_ID":"2011-024A","OBJECT_NUMBER":"37673","SEMIMAJOR_AXIS":"7031.099","PERIOD":"97.790","APOGEE":"653.467","PERIGEE":"652.460"},{"ORDINAL":"1","COMMENT":"GENERATED VIA SPACETRACK.ORG API","ORIGINATOR":"JSPOC","NORAD_CAT_ID":"37677","OBJECT_NAME":"CHINASAT 10","OBJECT_TYPE":"PAYLOAD","CLASSIFICATION_TYPE":"U","INTLDES":"11026A","EPOCH":"2016-06-23 00:17:39","EPOCH_MICROSECONDS":"994944","MEAN_MOTION":"1.00270178","ECCENTRICITY":"0.0003332","INCLINATION":"0.0165","RA_OF_ASC_NODE":"10.9778","ARG_OF_PERICENTER":"239.475","MEAN_ANOMALY":"136.0954","EPHEMERIS_TYPE":"0","ELEMENT_SET_NO":"999","REV_AT_EPOCH":"1841","BSTAR":"0","MEAN_MOTION_DOT":"-3.53e-06","MEAN_MOTION_DDOT":"0","FILE":"2050494","TLE_LINE0":"0 CHINASAT 10","TLE_LINE1":"1 37677U 11026A   16175.01226846 -.00000353  00000-0  00000+0 0  9990","TLE_LINE2":"2 37677   0.0165  10.9778 0003332 239.4750 136.0954  1.00270178 18415","OBJECT_ID":"2011-026A","OBJECT_NUMBER":"37677","SEMIMAJOR_AXIS":"42165.182","PERIOD":"1436.119","APOGEE":"35801.096","PERIGEE":"35772.998"},{"ORDINAL":"1","COMMENT":"GENERATED VIA SPACETRACK.ORG API","ORIGINATOR":"JSPOC","NORAD_CAT_ID":"37730","OBJECT_NAME":"SJ-11-03","OBJECT_TYPE":"PAYLOAD","CLASSIFICATION_TYPE":"U","INTLDES":"11030A","EPOCH":"2016-06-23 10:12:08","EPOCH_MICROSECONDS":"990784","MEAN_MOTION":"14.60534198","ECCENTRICITY":"0.0009168","INCLINATION":"98.071","RA_OF_ASC_NODE":"248.4061","ARG_OF_PERICENTER":"9.4972","MEAN_ANOMALY":"350.6397","EPHEMERIS_TYPE":"0","ELEMENT_SET_NO":"999","REV_AT_EPOCH":"26467","BSTAR":"2.9921e-05","MEAN_MOTION_DOT":"1e-06","MEAN_MOTION_DDOT":"0","FILE":"2050712","TLE_LINE0":"0 SJ-11-03","TLE_LINE1":"1 37730U 11030A   16175.42510406  .00000100  00000-0  29921-4 0  9995","TLE_LINE2":"2 37730  98.0710 248.4061 0009168   9.4972 350.6397 14.60534198264676","OBJECT_ID":"2011-030A","OBJECT_NUMBER":"37730","SEMIMAJOR_AXIS":"7069.586","PERIOD":"98.594","APOGEE":"697.933","PERIGEE":"684.970"},{"ORDINAL":"1","COMMENT":"GENERATED VIA SPACETRACK.ORG API","ORIGINATOR":"JSPOC","NORAD_CAT_ID":"37737","OBJECT_NAME":"TIANLIAN 1-02","OBJECT_TYPE":"PAYLOAD","CLASSIFICATION_TYPE":"U","INTLDES":"11032A","EPOCH":"2016-06-22 15:52:06","EPOCH_MICROSECONDS":"820320","MEAN_MOTION":"1.00273407","ECCENTRICITY":"0.0001425","INCLINATION":"1.8643","RA_OF_ASC_NODE":"79.0906","ARG_OF_PERICENTER":"195.4585","MEAN_ANOMALY":"51.4128","EPHEMERIS_TYPE":"0","ELEMENT_SET_NO":"999","REV_AT_EPOCH":"1815","BSTAR":"0","MEAN_MOTION_DOT":"2.8e-07","MEAN_MOTION_DDOT":"0","FILE":"2050785","TLE_LINE0":"0 TIANLIAN 1-02","TLE_LINE1":"1 37737U 11032A   16174.66119005 +.00000028 +00000-0 +00000-0 0  9991","TLE_LINE2":"2 37737 001.8643 079.0906 0001425 195.4585 051.4128 01.00273407018151","OBJECT_ID":"2011-032A","OBJECT_NUMBER":"37737","SEMIMAJOR_AXIS":"42164.277","PERIOD":"1436.073","APOGEE":"35792.150","PERIGEE":"35780.133"}]